NORAD_CAT_ID,OBJECT_NAME,OBJECT_TYPE,EPOCH,MEAN_MOTION,ECCENTRICITY,INCLINATION,RA_OF_ASC_NODE,ARG_OF_PERICENTER,MEAN_ANOMALY,BSTAR,MEAN_MOTION_DOT,MEAN_MOTION_DDOT,TLE_LINE0,TLE_LINE1,TLE_LINE2,SEMIMAJOR_AXIS,PERIOD,APOGEE,PERIGEE,DECAYED
53996.0,STARLINK-5131,PAYLOAD,2023-02-16 16:12:59,15.0882619,0.0001258,53.2143,188.4325,91.3395,268.7741,-7.7066e-05,-1.514e-05,0.0,0 STARLINK-5131,1 53996U 22125AJ  23047.67568750 -.00001514  00000-0 -77066-4 0  9997,2 53996  53.2143 188.4325 0001258  91.3395 268.7741 15.08826190 20905,6917.923,95.438,540.658,538.917,0.0
53996.0,STARLINK-5131,PAYLOAD,2023-02-17 08:06:50,15.08833565,0.000109,53.2155,185.457,81.7744,278.3372,-8.3292e-05,-1.613e-05,0.0,0 STARLINK-5131,1 53996U 22125AJ  23048.33808757 -.00001613  00000-0 -83292-4 0  9993,2 53996  53.2155 185.4570 0001090  81.7744 278.3372 15.08833565 21005,6917.9,95.438,540.519,539.011,0.0
53996.0,STARLINK-5131,PAYLOAD,2023-02-17 16:03:45,15.08846119,8.97e-05,53.2129,183.9717,97.5853,262.5241,8.0853e-05,9.99e-06,0.0,0 STARLINK-5131,1 53996U 22125AJ  23048.66927378  .00000999  00000-0  80853-4 0  9994,2 53996  53.2129 183.9717 0000897  97.5853 262.5241 15.08846119 21056,6917.862,95.437,540.347,539.106,0.0
53996.0,STARLINK-5131,PAYLOAD,2023-02-18 09:33:00,15.08827817,0.0001264,53.2137,180.7017,97.3163,262.7973,0.00026097,3.867e-05,0.0,0 STARLINK-5131,1 53996U 22125AJ  23049.39791703  .00003867  00000-0  26097-3 0  9992,2 53996  53.2137 180.7017 0001264  97.3163 262.7973 15.08827817 21164,6917.918,95.438,540.657,538.908,0.0
53996.0,STARLINK-5131,PAYLOAD,2023-02-19 14:09:57,15.0883299,5.1e-05,53.2172,175.3504,52.6977,307.4061,-7.491e-05,-1.479e-05,0.0,0 STARLINK-5131,1 53996U 22125AJ  23050.59024952 -.00001479  00000-0 -74910-4 0  9998,2 53996  53.2172 175.3504 0000510  52.6977 307.4061 15.08832990 21279,6917.902,95.438,540.12,539.414,0.0
53996.0,STARLINK-5131,PAYLOAD,2023-02-19 17:20:42,15.08843048,9.12e-05,53.2153,174.7554,87.2056,272.9041,2.5483e-05,1.18e-06,0.0,0 STARLINK-5131,1 53996U 22125AJ  23050.72271984  .00000118  00000-0  25483-4 0  9990,2 53996  53.2153 174.7554 0000912  87.2056 272.9041 15.08843048 21364,6917.871,95.437,540.367,539.105,0.0
53996.0,STARLINK-5131,PAYLOAD,2023-02-20 01:17:39,15.08836107,9.7e-05,53.2157,173.2686,88.1913,271.919,-1.2464e-05,-4.86e-06,0.0,0 STARLINK-5131,1 53996U 22125AJ  23051.05392531 -.00000486  00000-0 -12464-4 0  9994,2 53996  53.2157 173.2686 0000970  88.1913 271.9190 15.08836107 21412,6917.892,95.438,540.428,539.086,0.0
53996.0,STARLINK-5131,PAYLOAD,2023-02-20 14:00:43,15.0884877,0.0001018,53.2157,170.8898,85.4223,274.6886,3.6693e-05,2.96e-06,0.0,0 STARLINK-5131,1 53996U 22125AJ  23051.58383660  .00000296  00000-0  36693-4 0  9992,2 53996  53.2157 170.8898 0001018  85.4223 274.6886 15.08848770 21420,6917.854,95.437,540.423,539.014,0.0
53996.0,STARLINK-5131,PAYLOAD,2023-02-20 17:11:29,15.08854432,0.0001115,53.2159,170.2952,84.1552,275.9567,8.8891e-05,1.128e-05,0.0,0 STARLINK-5131,1 53996U 22125AJ  23051.71631132  .00001128  00000-0  88891-4 0  9999,2 53996  53.2159 170.2952 0001115  84.1552 275.9567 15.08854432 21518,6917.836,95.437,540.473,538.93,0.0
53996.0,STARLINK-5131,PAYLOAD,2023-02-21 07:29:58,15.08832643,0.0001094,53.2157,167.6175,89.1843,270.9275,0.00011527,1.547e-05,0.0,0 STARLINK-5131,1 53996U 22125AJ  23052.31248412  .00001547  00000-0  11527-3 0  9997,2 53996  53.2157 167.6175 0001094  89.1843 270.9275 15.08832643 21608,6917.903,95.438,540.525,539.011,0.0
53996.0,STARLINK-5131,PAYLOAD,2023-02-21 13:51:30,15.088386,0.0001336,53.2168,166.4298,92.7748,267.3397,0.00015409,2.165e-05,0.0,0 STARLINK-5131,1 53996U 22125AJ  23052.57744030  .00002165  00000-0  15409-3 0  9992,2 53996  53.2168 166.4298 0001336  92.7748 267.3397 15.08838600 21576,6917.885,95.438,540.674,538.825,0.0
53996.0,STARLINK-5131,PAYLOAD,2023-02-21 18:37:39,15.08856881,0.0001207,53.2156,165.5341,82.5565,277.5564,0.00017037,2.426e-05,0.0,0 STARLINK-5131,1 53996U 22125AJ  23052.77614668  .00002426  00000-0  17037-3 0  9996,2 53996  53.2156 165.5341 0001207  82.5565 277.5564 15.08856881 21674,6917.829,95.436,540.529,538.859,0.0
53996.0,STARLINK-5131,PAYLOAD,2023-02-22 00:59:12,15.08836825,8.65e-05,53.2161,164.3467,92.5557,267.5534,2.3424e-05,8.5e-07,0.0,0 STARLINK-5131,1 53996U 22125AJ  23053.04112174  .00000085  00000-0  23424-4 0  9999,2 53996  53.2161 164.3467 0000865  92.5557 267.5534 15.08836825 21714,6917.89,95.438,540.353,539.157,0.0
53996.0,STARLINK-5131,PAYLOAD,2023-02-22 12:06:54,15.08840739,0.0001383,53.2144,162.2669,85.6459,274.4692,2.9987e-05,1.89e-06,0.0,0 STARLINK-5131,1 53996U 22125AJ  23053.50480153  .00000189  00000-0  29987-4 0  9990,2 53996  53.2144 162.2669 0001383  85.6459 274.4692 15.08840739 21717,6917.878,95.438,540.7,538.786,0.0
53996.0,STARLINK-5131,PAYLOAD,2023-02-22 16:53:03,15.08850502,0.0001326,53.2148,161.3742,86.3498,273.7646,7.1387e-05,8.49e-06,0.0,0 STARLINK-5131,1 53996U 22125AJ  23053.70351327  .00000849  00000-0  71387-4 0  9996,2 53996  53.2148 161.3742 0001326  86.3498 273.7646 15.08850502 21812,6917.848,95.437,540.631,538.796,0.0
53996.0,STARLINK-5131,PAYLOAD,2023-02-23 10:22:19,15.08836127,0.0001053,53.2149,158.0991,93.4945,266.6167,-0.00011202,-2.07e-05,0.0,0 STARLINK-5131,1 53996U 22125AJ  23054.43216823 -.00002070  00000-0 -11202-3 0  9997,2 53996  53.2149 158.0991 0001053  93.4945 266.6167 15.08836127 21923,6917.892,95.438,540.486,539.029,0.0
53996.0,STARLINK-5131,PAYLOAD,2023-02-23 11:57:42,15.08836053,0.0001038,53.2155,157.8048,90.6307,269.4804,-7.5429e-05,-1.488e-05,0.0,0 STARLINK-5131,1 53996U 22125AJ  23054.49840719 -.00001488  00000-0 -75429-4 0  9994,2 53996  53.2155 157.8048 0001038  90.6307 269.4804 15.08836053 21864,6917.892,95.438,540.476,539.039,0.0
53996.0,STARLINK-5131,PAYLOAD,2023-02-23 16:43:51,15.08844762,0.0001125,53.2171,156.9147,97.4697,262.6423,1.9982e-05,3e-07,0.0,0 STARLINK-5131,1 53996U 22125AJ  23054.69711882  .00000030  00000-0  19982-4 0  9996,2 53996  53.2171 156.9147 0001125  97.4697 262.6423 15.08844762 21965,6917.866,95.437,540.509,538.953,0.0
53996.0,STARLINK-5131,PAYLOAD,2023-02-24 10:13:06,15.08829015,0.0001061,53.217,153.6436,100.0207,260.0905,8.9794e-05,1.141e-05,0.0,0 STARLINK-5131,1 53996U 22125AJ  23055.42576837  .00001141  00000-0  89794-4 0  9999,2 53996  53.2170 153.6436 0001061 100.0207 260.0905 15.08829015 22070,6917.914,95.438,540.513,539.045,0.0
53996.0,STARLINK-5131,PAYLOAD,2023-02-24 11:48:29,15.08834784,0.000127,53.2168,153.3458,96.8506,263.2631,4.0135e-05,3.51e-06,0.0,0 STARLINK-5131,1 53996U 22125AJ  23055.49200727  .00000351  00000-0  40135-4 0  9996,2 53996  53.2168 153.3458 0001270  96.8506 263.2631 15.08834784 22018,6917.896,95.438,540.64,538.883,0.0
53996.0,STARLINK-5131,PAYLOAD,2023-02-24 16:34:37,15.08849605,0.000115,53.2163,152.4507,92.8831,267.2293,8.8725e-05,1.125e-05,0.0,0 STARLINK-5131,1 53996U 22125AJ  23055.69071466  .00001125  00000-0  88725-4 0  9991,2 53996  53.2163 152.4507 0001150  92.8831 267.2293 15.08849605 22119,6917.851,95.437,540.512,538.92,0.0
53996.0,STARLINK-5131,PAYLOAD,2023-02-24 22:56:12,15.08828025,0.0001763,53.2161,151.2616,69.1331,290.985,-8.386e-05,-1.622e-05,0.0,0 STARLINK-5131,1 53996U 22125AJ  23055.95569602 -.00001622  00000-0 -83860-4 0  9993,2 53996  53.2161 151.2616 0001763  69.1331 290.9850 15.08828025 22156,6917.917,95.438,541.002,538.562,0.0
53996.0,STARLINK-5131,PAYLOAD,2023-02-25 11:39:17,15.08828124,0.0001156,53.216,148.8846,104.0626,256.0495,-4.5776e-05,-1.016e-05,0.0,0 STARLINK-5131,1 53996U 22125AJ  23056.48561934 -.00001016  00000-0 -45776-4 0  9993,2 53996  53.2160 148.8846 0001156 104.0626 256.0495 15.08828124 22163,6917.917,95.438,540.581,538.982,0.0
53996.0,STARLINK-5131,PAYLOAD,2023-02-25 14:50:03,15.08832624,0.0001164,53.2161,148.2898,103.3584,256.7538,-1.1745e-05,-4.75e-06,0.0,0 STARLINK-5131,1 53996U 22125AJ  23056.61809598 -.00000475  00000-0 -11745-4 0  9996,2 53996  53.2161 148.2898 0001164 103.3584 256.7538 15.08832624 22254,6917.903,95.438,540.573,538.963,0.0
53996.0,STARLINK-5131,PAYLOAD,2023-02-25 22:46:58,15.08840042,0.0001268,53.2168,146.8037,102.7704,257.343,6.7362e-05,7.84e-06,0.0,0 STARLINK-5131,1 53996U 22125AJ  23056.94929085  .00000784  00000-0  67362-4 0  9993,2 53996  53.2168 146.8037 0001268 102.7704 257.3430 15.08840042 22309,6917.88,95.438,540.622,538.868,0.0
53996.0,STARLINK-5131,PAYLOAD,2023-02-26 09:54:39,15.08857899,0.0001129,53.2156,144.7209,101.6097,258.5022,0.00016964,2.414e-05,0.0,0 STARLINK-5131,1 53996U 22125AJ  23057.41295711  .00002414  00000-0  16964-3 0  9991,2 53996  53.2156 144.7209 0001129 101.6097 258.5022 15.08857899 22378,6917.826,95.436,540.472,538.91,0.0
53996.0,STARLINK-5131,PAYLOAD,2023-02-26 14:40:47,15.08874446,0.0001271,53.2163,143.829,107.3256,252.7876,0.00015453,2.175e-05,0.0,0 STARLINK-5131,1 53996U 22125AJ  23057.61166565  .00002175  00000-0  15453-3 0  9993,2 53996  53.2163 143.8290 0001271 107.3256 252.7876 15.08874446 22330,6917.775,95.435,540.519,538.761,0.0
53996.0,STARLINK-5131,PAYLOAD,2023-02-26 22:37:45,15.08843311,0.0001026,53.2151,142.3412,100.932,259.1787,3.7377e-06,-2.28e-06,0.0,0 STARLINK-5131,1 53996U 22125AJ  23057.94288696 -.00000228  00000-0  37377-5 0  9998,2 53996  53.2151 142.3412 0001026 100.9320 259.1787 15.08843311 22458,6917.87,95.437,540.445,539.025,0.0
53996.0,STARLINK-5131,PAYLOAD,2023-02-27 08:10:05,15.08828495,0.0001332,53.2157,140.5589,106.3036,253.8103,9.6847e-05,1.253e-05,0.0,0 STARLINK-5131,1 53996U 22125AJ  23058.34033934  .00001253  00000-0  96847-4 0  9990,2 53996  53.2157 140.5589 0001332 106.3036 253.8103 15.08828495 22519,6917.916,95.438,540.702,538.859,0.0
53996.0,STARLINK-5131,PAYLOAD,2023-02-27 14:31:37,15.08841093,0.0001628,53.214,139.3706,83.8548,276.2629,0.0002159,3.15e-05,0.0,0 STARLINK-5131,1 53996U 22125AJ  23058.60529099  .00003150  00000-0  21590-3 0  9991,2 53996  53.2140 139.3706 0001628  83.8548 276.2629 15.08841093 22558,6917.877,95.437,540.868,538.616,0.0
